[{"OBJECT_NAME":"IRIDIUM 33 DEB","OBJECT_ID":"1997-051KQ","EPOCH":"2026-02-24T23:46:27.128064","MEAN_MOTION":15.78525,"ECCENTRICITY":0.00039393,"INCLINATION":86.2833,"RA_OF_ASC_NODE":265.9163,"ARG_OF_PERICENTER":44.5223,"MEAN_ANOMALY":315.6368,"EPHEMERIS_TYPE":0,"CLASSIFICATION_TYPE":"U","NORAD_CAT_ID":34693,"ELEMENT_SET_NO":999,"REV_AT_EPOCH":90061,"BSTAR":0.0068576941,"MEAN_MOTION_DOT":0.01322234,"MEAN_MOTION_DDOT":0},{"OBJECT_NAME":"IRIDIUM 33 DEB","OBJECT_ID":"1997-051KT","EPOCH":"2026-03-09T18:30:34.640064","MEAN_MOTION":14.72385501,"ECCENTRICITY":0.00566875,"INCLINATION":86.1823,"RA_OF_ASC_NODE":346.8117,"ARG_OF_PERICENTER":230.8693,"MEAN_ANOMALY":183.7612,"EPHEMERIS_TYPE":0,"CLASSIFICATION_TYPE":"U","NORAD_CAT_ID":34696,"ELEMENT_SET_NO":999,"REV_AT_EPOCH":87950,"BSTAR":0.0050713809,"MEAN_MOTION_DOT":0.00033072,"MEAN_MOTION_DDOT":0},{"OBJECT_NAME":"IRIDIUM 33 DEB","OBJECT_ID":"1997-051LJ","EPOCH":"2026-03-10T05:45:40.065120","MEAN_MOTION":14.4075659,"ECCENTRICITY":0.00144434,"INCLINATION":86.3444,"RA_OF_ASC_NODE":355.2153,"ARG_OF_PERICENTER":295.2954,"MEAN_ANOMALY":217.6909,"EPHEMERIS_TYPE":0,"CLASSIFICATION_TYPE":"U","NORAD_CAT_ID":34765,"ELEMENT_SET_NO":999,"REV_AT_EPOCH":88873,"BSTAR":0.00052246598,"MEAN_MOTION_DOT":1.691e-5,"MEAN_MOTION_DDOT":0},{"OBJECT_NAME":"IRIDIUM 33 DEB","OBJECT_ID":"1997-051MH","EPOCH":"2026-03-10T07:38:36.133728","MEAN_MOTION":14.53054149,"ECCENTRICITY":0.00199142,"INCLINATION":86.3969,"RA_OF_ASC_NODE":13.2251,"ARG_OF_PERICENTER":155.7123,"MEAN_ANOMALY":356.9248,"EPHEMERIS_TYPE":0,"CLASSIFICATION_TYPE":"U","NORAD_CAT_ID":34833,"ELEMENT_SET_NO":999,"REV_AT_EPOCH":88986,"BSTAR":0.0010186817,"MEAN_MOTION_DOT":4.238e-5,"MEAN_MOTION_DDOT":0},{"OBJECT_NAME":"IRIDIUM 33 DEB","OBJECT_ID":"1997-051MQ","EPOCH":"2026-03-07T13:09:03.496032","MEAN_MOTION":14.78386839,"ECCENTRICITY":0.0014661,"INCLINATION":86.3051,"RA_OF_ASC_NODE":275.1772,"ARG_OF_PERICENTER":257.1267,"MEAN_ANOMALY":132.6404,"EPHEMERIS_TYPE":0,"CLASSIFICATION_TYPE":"U","NORAD_CAT_ID":34870,"ELEMENT_SET_NO":999,"REV_AT_EPOCH":90163,"BSTAR":0.0016338,"MEAN_MOTION_DOT":0.00011947,"MEAN_MOTION_DDOT":0},{"OBJECT_NAME":"IRIDIUM 33 DEB","OBJECT_ID":"1997-051MY","EPOCH":"2026-03-09T08:53:47.178816","MEAN_MOTION":14.67283018,"ECCENTRICITY":0.00238001,"INCLINATION":86.325,"RA_OF_ASC_NODE":287.8087,"ARG_OF_PERICENTER":283.255,"MEAN_ANOMALY":199.3546,"EPHEMERIS_TYPE":0,"CLASSIFICATION_TYPE":"U","NORAD_CAT_ID":34896,"ELEMENT_SET_NO":999,"REV_AT_EPOCH":88889,"BSTAR":0.00085086349,"MEAN_MOTION_DOT":4.839e-5,"MEAN_MOTION_DDOT":0},{"OBJECT_NAME":"IRIDIUM 33 DEB","OBJECT_ID":"1997-051NF","EPOCH":"2026-03-10T03:55:04.449216","MEAN_MOTION":14.59142453,"ECCENTRICITY":0.00790468,"INCLINATION":86.1319,"RA_OF_ASC_NODE":327.5931,"ARG_OF_PERICENTER":359.8878,"MEAN_ANOMALY":152.4227,"EPHEMERIS_TYPE":0,"CLASSIFICATION_TYPE":"U","NORAD_CAT_ID":34926,"ELEMENT_SET_NO":999,"REV_AT_EPOCH":87729,"BSTAR":0.0051981561,"MEAN_MOTION_DOT":0.00025652,"MEAN_MOTION_DDOT":0},{"OBJECT_NAME":"IRIDIUM 33 DEB","OBJECT_ID":"1997-051NR","EPOCH":"2026-03-10T07:47:24.493056","MEAN_MOTION":14.42476557,"ECCENTRICITY":0.00194056,"INCLINATION":86.3737,"RA_OF_ASC_NODE":19.4935,"ARG_OF_PERICENTER":300.3808,"MEAN_ANOMALY":211.9271,"EPHEMERIS_TYPE":0,"CLASSIFICATION_TYPE":"U","NORAD_CAT_ID":34985,"ELEMENT_SET_NO":999,"REV_AT_EPOCH":88437,"BSTAR":0.00093137696,"MEAN_MOTION_DOT":3.11e-5,"MEAN_MOTION_DDOT":0},{"OBJECT_NAME":"IRIDIUM 33 DEB","OBJECT_ID":"1997-051NX","EPOCH":"2026-03-08T04:06:58.448448","MEAN_MOTION":14.48101451,"ECCENTRICITY":0.00085649,"INCLINATION":86.3274,"RA_OF_ASC_NODE":331.6303,"ARG_OF_PERICENTER":149.501,"MEAN_ANOMALY":210.6693,"EPHEMERIS_TYPE":0,"CLASSIFICATION_TYPE":"U","NORAD_CAT_ID":35051,"ELEMENT_SET_NO":999,"REV_AT_EPOCH":88232,"BSTAR":0.00082973634,"MEAN_MOTION_DOT":3.107e-5,"MEAN_MOTION_DDOT":0},{"OBJECT_NAME":"IRIDIUM 33 DEB","OBJECT_ID":"1997-051NY","EPOCH":"2026-03-09T04:20:40.379424","MEAN_MOTION":14.38627084,"ECCENTRICITY":0.00122025,"INCLINATION":86.3359,"RA_OF_ASC_NODE":343.4316,"ARG_OF_PERICENTER":149.739,"MEAN_ANOMALY":210.4516,"EPHEMERIS_TYPE":0,"CLASSIFICATION_TYPE":"U","NORAD_CAT_ID":35052,"ELEMENT_SET_NO":999,"REV_AT_EPOCH":88518,"BSTAR":0.00023139423,"MEAN_MOTION_DOT":7.29e-6,"MEAN_MOTION_DDOT":0},{"OBJECT_NAME":"IRIDIUM 33 DEB","OBJECT_ID":"1997-051PF","EPOCH":"2026-03-08T20:08:48.628608","MEAN_MOTION":15.0410284,"ECCENTRICITY":0.00301759,"INCLINATION":86.2075,"RA_OF_ASC_NODE":10.7469,"ARG_OF_PERICENTER":217.121,"MEAN_ANOMALY":142.7938,"EPHEMERIS_TYPE":0,"CLASSIFICATION_TYPE":"U","NORAD_CAT_ID":35080,"ELEMENT_SET_NO":999,"REV_AT_EPOCH":70973,"BSTAR":0.01054144,"MEAN_MOTION_DOT":0.00150308,"MEAN_MOTION_DDOT":0},{"OBJECT_NAME":"IRIDIUM 33 DEB","OBJECT_ID":"1997-051PM","EPOCH":"2026-03-09T14:55:38.906976","MEAN_MOTION":14.45615054,"ECCENTRICITY":0.001396,"INCLINATION":86.3888,"RA_OF_ASC_NODE":25.6516,"ARG_OF_PERICENTER":209.3428,"MEAN_ANOMALY":150.6991,"EPHEMERIS_TYPE":0,"CLASSIFICATION_TYPE":"U","NORAD_CAT_ID":35297,"ELEMENT_SET_NO":999,"REV_AT_EPOCH":71681,"BSTAR":0.00079346,"MEAN_MOTION_DOT":2.825e-5,"MEAN_MOTION_DDOT":0},{"OBJECT_NAME":"IRIDIUM 33 DEB","OBJECT_ID":"1997-051PP","EPOCH":"2026-03-10T06:15:16.742880","MEAN_MOTION":14.41686253,"ECCENTRICITY":0.00544231,"INCLINATION":86.2916,"RA_OF_ASC_NODE":355.0678,"ARG_OF_PERICENTER":171.0749,"MEAN_ANOMALY":341.3136,"EPHEMERIS_TYPE":0,"CLASSIFICATION_TYPE":"U","NORAD_CAT_ID":35299,"ELEMENT_SET_NO":999,"REV_AT_EPOCH":87591,"BSTAR":0.0014063972,"MEAN_MOTION_DOT":4.684e-5,"MEAN_MOTION_DDOT":0},{"OBJECT_NAME":"IRIDIUM 33 DEB","OBJECT_ID":"1997-051QA","EPOCH":"2026-03-09T04:48:03.602016","MEAN_MOTION":14.50286669,"ECCENTRICITY":0.00134048,"INCLINATION":86.3612,"RA_OF_ASC_NODE":347.4268,"ARG_OF_PERICENTER":166.11,"MEAN_ANOMALY":194.0476,"EPHEMERIS_TYPE":0,"CLASSIFICATION_TYPE":"U","NORAD_CAT_ID":35480,"ELEMENT_SET_NO":999,"REV_AT_EPOCH":88284,"BSTAR":0.00074326865,"MEAN_MOTION_DOT":2.917e-5,"MEAN_MOTION_DDOT":0},{"OBJECT_NAME":"IRIDIUM 33 DEB","OBJECT_ID":"1997-051QE","EPOCH":"2026-03-07T09:35:18.798432","MEAN_MOTION":15.07266806,"ECCENTRICITY":0.0013423,"INCLINATION":86.3519,"RA_OF_ASC_NODE":312.8742,"ARG_OF_PERICENTER":171.2899,"MEAN_ANOMALY":188.8573,"EPHEMERIS_TYPE":0,"CLASSIFICATION_TYPE":"U","NORAD_CAT_ID":35484,"ELEMENT_SET_NO":999,"REV_AT_EPOCH":63287,"BSTAR":0.0040001,"MEAN_MOTION_DOT":0.00060878,"MEAN_MOTION_DDOT":0},{"OBJECT_NAME":"IRIDIUM 33 DEB","OBJECT_ID":"1997-051QJ","EPOCH":"2026-03-07T23:10:11.898336","MEAN_MOTION":14.85301332,"ECCENTRICITY":0.00274699,"INCLINATION":86.3195,"RA_OF_ASC_NODE":261.5054,"ARG_OF_PERICENTER":96.9256,"MEAN_ANOMALY":263.5094,"EPHEMERIS_TYPE":0,"CLASSIFICATION_TYPE":"U","NORAD_CAT_ID":35488,"ELEMENT_SET_NO":999,"REV_AT_EPOCH":89530,"BSTAR":0.0018260223,"MEAN_MOTION_DOT":0.00015835,"MEAN_MOTION_DDOT":0},{"OBJECT_NAME":"IRIDIUM 33 DEB","OBJECT_ID":"1997-051QN","EPOCH":"2026-03-10T01:56:14.702208","MEAN_MOTION":14.84775875,"ECCENTRICITY":0.00067992,"INCLINATION":86.3521,"RA_OF_ASC_NODE":305.8143,"ARG_OF_PERICENTER":227.5678,"MEAN_ANOMALY":132.4972,"EPHEMERIS_TYPE":0,"CLASSIFICATION_TYPE":"U","NORAD_CAT_ID":35616,"ELEMENT_SET_NO":999,"REV_AT_EPOCH":88869,"BSTAR":0.0015496693,"MEAN_MOTION_DOT":0.00013183,"MEAN_MOTION_DDOT":0},{"OBJECT_NAME":"IRIDIUM 33 DEB","OBJECT_ID":"1997-051QQ","EPOCH":"2026-03-04T11:11:49.822368","MEAN_MOTION":14.52714174,"ECCENTRICITY":0.00305475,"INCLINATION":86.3417,"RA_OF_ASC_NODE":317.7694,"ARG_OF_PERICENTER":101.7612,"MEAN_ANOMALY":258.7023,"EPHEMERIS_TYPE":0,"CLASSIFICATION_TYPE":"U","NORAD_CAT_ID":35618,"ELEMENT_SET_NO":999,"REV_AT_EPOCH":66580,"BSTAR":0.00054634879,"MEAN_MOTION_DOT":2.274e-5,"MEAN_MOTION_DDOT":0},{"OBJECT_NAME":"IRIDIUM 33 DEB","OBJECT_ID":"1997-051QS","EPOCH":"2026-03-05T18:25:05.119968","MEAN_MOTION":14.40556949,"ECCENTRICITY":0.01306916,"INCLINATION":86.3913,"RA_OF_ASC_NODE":182.3886,"ARG_OF_PERICENTER":344.0446,"MEAN_ANOMALY":15.6652,"EPHEMERIS_TYPE":0,"CLASSIFICATION_TYPE":"U","NORAD_CAT_ID":35620,"ELEMENT_SET_NO":999,"REV_AT_EPOCH":61160,"BSTAR":0.0029057229,"MEAN_MOTION_DOT":0.00010264,"MEAN_MOTION_DDOT":0},{"OBJECT_NAME":"IRIDIUM 33 DEB","OBJECT_ID":"1997-051QU","EPOCH":"2026-03-10T04:40:54.255360","MEAN_MOTION":15.14292175,"ECCENTRICITY":0.00068998,"INCLINATION":86.1934,"RA_OF_ASC_NODE":220.1186,"ARG_OF_PERICENTER":295.4365,"MEAN_ANOMALY":185.2863,"EPHEMERIS_TYPE":0,"CLASSIFICATION_TYPE":"U","NORAD_CAT_ID":35622,"ELEMENT_SET_NO":999,"REV_AT_EPOCH":88679,"BSTAR":0.0031637608,"MEAN_MOTION_DOT":0.00058321,"MEAN_MOTION_DDOT":0},{"OBJECT_NAME":"IRIDIUM 33 DEB","OBJECT_ID":"1997-051RA","EPOCH":"2026-03-10T00:11:08.679840","MEAN_MOTION":14.69246812,"ECCENTRICITY":0.0013591,"INCLINATION":86.3588,"RA_OF_ASC_NODE":330.1198,"ARG_OF_PERICENTER":37.4409,"MEAN_ANOMALY":322.775,"EPHEMERIS_TYPE":0,"CLASSIFICATION_TYPE":"U","NORAD_CAT_ID":35628,"ELEMENT_SET_NO":999,"REV_AT_EPOCH":87727,"BSTAR":0.0014286572,"MEAN_MOTION_DOT":8.456e-5,"MEAN_MOTION_DDOT":0},{"OBJECT_NAME":"IRIDIUM 33 DEB","OBJECT_ID":"1997-051RD","EPOCH":"2026-03-07T05:45:48.027744","MEAN_MOTION":14.47625787,"ECCENTRICITY":0.0015778,"INCLINATION":86.3728,"RA_OF_ASC_NODE":344.5971,"ARG_OF_PERICENTER":192.5791,"MEAN_ANOMALY":320.9949,"EPHEMERIS_TYPE":0,"CLASSIFICATION_TYPE":"U","NORAD_CAT_ID":35631,"ELEMENT_SET_NO":999,"REV_AT_EPOCH":88419,"BSTAR":0.0005016,"MEAN_MOTION_DOT":1.87e-5,"MEAN_MOTION_DDOT":0},{"OBJECT_NAME":"IRIDIUM 33 DEB","OBJECT_ID":"1997-051RJ","EPOCH":"2026-03-03T13:37:30.156096","MEAN_MOTION":14.22211774,"ECCENTRICITY":0.0154844,"INCLINATION":86.1052,"RA_OF_ASC_NODE":345.7068,"ARG_OF_PERICENTER":22.2182,"MEAN_ANOMALY":95.9581,"EPHEMERIS_TYPE":0,"CLASSIFICATION_TYPE":"U","NORAD_CAT_ID":35680,"ELEMENT_SET_NO":999,"REV_AT_EPOCH":61849,"BSTAR":0.0042353,"MEAN_MOTION_DOT":0.00010642,"MEAN_MOTION_DDOT":0}]
